{
  "type": "FeatureCollection",
  "features": [
    {
      "type": "Feature",
      "properties": {
        "norad_id": 64202,
        "name": "GPS BIII-8  (PRN 21)",
        "group": "gnss",
        "lat": -53.03363979539799,
        "lon": -73.80988514648277,
        "alt_km": 20179.183564783427,
        "timestamp": "2025-12-21T22:41:41.704825+00:00",
        "meta_object_name": "GPS BIII-8  (PRN 21)",
        "meta_object_id": "2025-116A",
        "meta_epoch": "2025-12-21T05:27:12.746304",
        "meta_mean_motion": 2.00557871,
        "meta_eccentricity": 0.0005801,
        "meta_inclination": 55.1115,
        "meta_ra_of_asc_node": 38.2986,
        "meta_arg_of_pericenter": 309.9231,
        "meta_mean_anomaly": 148.3902,
        "meta_ephemeris_type": 0,
        "meta_classification_type": "U",
        "meta_norad_cat_id": 64202,
        "meta_element_set_no": 999,
        "meta_rev_at_epoch": 430,
        "meta_bstar": 0,
        "meta_mean_motion_dot": -5.6e-07,
        "meta_mean_motion_ddot": 0,
        "tle_line1": "1 64202U 25116A   25355.22723086 -.00000056  00000+0  00000+0 0  9999",
        "tle_line2": "2 64202  55.1115  38.2986 0005801 309.9231 148.3902  2.00557871  4300"
      },
      "geometry": {
        "type": "Point",
        "coordinates": [
          -73.80988514648277,
          -53.03363979539799
        ]
      }
    },
    {
      "type": "Feature",
      "properties": {
        "norad_id": 65590,
        "name": "COSMOS 2596 (708K)",
        "group": "gnss",
        "lat": -62.94493072913798,
        "lon": -151.3514268639771,
        "alt_km": 19112.04933345909,
        "timestamp": "2025-12-21T22:41:41.704836+00:00",
        "meta_object_name": "COSMOS 2596 (708K)",
        "meta_object_id": "2025-206B",
        "meta_epoch": "2025-12-21T08:11:49.978752",
        "meta_mean_motion": 2.13100442,
        "meta_eccentricity": 0.00140796,
        "meta_inclination": 64.7397,
        "meta_ra_of_asc_node": 321.1762,
        "meta_arg_of_pericenter": 307.1691,
        "meta_mean_anomaly": 209.4715,
        "meta_ephemeris_type": 0,
        "meta_classification_type": "U",
        "meta_norad_cat_id": 65590,
        "meta_element_set_no": 999,
        "meta_rev_at_epoch": 212,
        "meta_bstar": 0,
        "meta_mean_motion_dot": -4.8e-07,
        "meta_mean_motion_ddot": 0,
        "tle_line1": "1 65590U 25206B   25355.34155068 -.00000048  00000+0  00000+0 0  9993",
        "tle_line2": "2 65590  64.7397 321.1762 0014079 307.1691 209.4715  2.13100442  2123"
      },
      "geometry": {
        "type": "Point",
        "coordinates": [
          -151.3514268639771,
          -62.94493072913798
        ]
      }
    },
    {
      "type": "Feature",
      "properties": {
        "norad_id": 67160,
        "name": "GALILEO A",
        "group": "gnss",
        "lat": -20.104949245651788,
        "lon": -57.59106120554751,
        "alt_km": 22925.873903995143,
        "timestamp": "2025-12-21T22:41:41.704847+00:00",
        "meta_object_name": "GALILEO A",
        "meta_object_id": "2025-302A",
        "meta_epoch": "2025-12-18T03:30:19.486368",
        "meta_mean_motion": 1.72906186,
        "meta_eccentricity": 0.00084238,
        "meta_inclination": 54.2406,
        "meta_ra_of_asc_node": 107.2544,
        "meta_arg_of_pericenter": 237.6458,
        "meta_mean_anomaly": 122.2317,
        "meta_ephemeris_type": 0,
        "meta_classification_type": "U",
        "meta_norad_cat_id": 67160,
        "meta_element_set_no": 999,
        "meta_rev_at_epoch": 2,
        "meta_bstar": 0,
        "meta_mean_motion_dot": -7e-08,
        "meta_mean_motion_ddot": 0,
        "tle_line1": "1 67160U 25302A   25352.14605887 -.00000007  00000+0  00000+0 0  9994",
        "tle_line2": "2 67160  54.2406 107.2544 0008423 237.6458 122.2317  1.72906186    28"
      },
      "geometry": {
        "type": "Point",
        "coordinates": [
          -57.59106120554751,
          -20.104949245651788
        ]
      }
    },
    {
      "type": "Feature",
      "properties": {
        "norad_id": 67161,
        "name": "GALILEO B",
        "group": "gnss",
        "lat": -20.97480891139097,
        "lon": -56.870149053347035,
        "alt_km": 22930.479193772728,
        "timestamp": "2025-12-21T22:41:41.704860+00:00",
        "meta_object_name": "GALILEO B",
        "meta_object_id": "2025-302B",
        "meta_epoch": "2025-12-19T07:14:53.290752",
        "meta_mean_motion": 1.72972192,
        "meta_eccentricity": 0.00045866,
        "meta_inclination": 54.2272,
        "meta_ra_of_asc_node": 107.1916,
        "meta_arg_of_pericenter": 255.0301,
        "meta_mean_anomaly": 104.8802,
        "meta_ephemeris_type": 0,
        "meta_classification_type": "U",
        "meta_norad_cat_id": 67161,
        "meta_element_set_no": 999,
        "meta_rev_at_epoch": 5,
        "meta_bstar": 0,
        "meta_mean_motion_dot": -5e-08,
        "meta_mean_motion_ddot": 0,
        "tle_line1": "1 67161U 25302B   25353.30200568 -.00000005  00000+0  00000+0 0  9999",
        "tle_line2": "2 67161  54.2272 107.1916 0004586 255.0301 104.8802  1.72972192    57"
      },
      "geometry": {
        "type": "Point",
        "coordinates": [
          -56.870149053347035,
          -20.97480891139097
        ]
      }
    }
  ]
}